[
  {
    "id": 1,
    "title": "Hawa Mahal",
    "image": "Hawa-Mahal.jpg",
    "state": "india",
    "review": 3.5,
    "days_nigths": "6 Nights - 7 Day",
    "description": "The Hawa Mahal is a palace in the city of Jaipur, India. Built from red and pink sandstone, it is on the edge of the City Palace, Jaipur, and extends to the Zenana, or women's chambers. The structure was built in 1799 by the Maharaja Sawai Pratap Singh, grandson of Maharaja Sawai Jai Singh, the founder of the city of Jaipur, India. He was so inspired by the unique structure of Khetri Mahal that he built this grand and historical palace",
    "days": [
      { "placeName": "Hawa Mahal" },
      { "placeName": "Jaisalmer" },
      { "placeName": "Ranakpurtemple" },
      { "placeName": "Mehrangarh-Fort" }
    ]
  },
  {
    "id": 2,
    "title": "Jaisalmer",
    "image": "Jaisalmer.jpg",
    "state": "india",
    "review": 4,
    "days_nigths": "6 Nights - 7 Day",
    "description": "The Hawa Mahal is a palace in the city of Jaipur, India. Built from red and pink sandstone, it is on the edge of the City Palace, Jaipur, and extends to the Zenana, or women's chambers. The structure was built in 1799 by the Maharaja Sawai Pratap Singh, grandson of Maharaja Sawai Jai Singh, the founder of the city of Jaipur, India. He was so inspired by the unique structure of Khetri Mahal that he built this grand and historical palace",
    "days": [
      { "placeName": "Hawa Mahal" },
      { "placeName": "Jaisalmer" },
      { "placeName": "Ranakpurtemple" },
      { "placeName": "Mehrangarh-Fort" }
    ]
  },
  {
    "id": 3,
    "title": "Mehrangarh Fort",
    "image": "Mehrangarh-Fort.jpg",
    "state": "india",
    "review": 2.5,
    "days_nigths": "6 Nights - 7 Day",
    "description": "The Hawa Mahal is a palace in the city of Jaipur, India. Built from red and pink sandstone, it is on the edge of the City Palace, Jaipur, and extends to the Zenana, or women's chambers. The structure was built in 1799 by the Maharaja Sawai Pratap Singh, grandson of Maharaja Sawai Jai Singh, the founder of the city of Jaipur, India. He was so inspired by the unique structure of Khetri Mahal that he built this grand and historical palace",
    "days": [
      { "placeName": "Hawa Mahal" },
      { "placeName": "Jaisalmer" },
      { "placeName": "Ranakpurtemple" },
      { "placeName": "Mehrangarh-Fort" }
    ]
  },
  {
    "id": 4,
    "title": "Ranakpur Temple",
    "image": "Ranakpur-Temple.jpg",
    "state": "india",
    "review": 5,
    "days_nigths": "6 Nights - 7 Day",
    "description": "The Hawa Mahal is a palace in the city of Jaipur, India. Built from red and pink sandstone, it is on the edge of the City Palace, Jaipur, and extends to the Zenana, or women's chambers. The structure was built in 1799 by the Maharaja Sawai Pratap Singh, grandson of Maharaja Sawai Jai Singh, the founder of the city of Jaipur, India. He was so inspired by the unique structure of Khetri Mahal that he built this grand and historical palace",
    "days": [
      { "placeName": "Hawa Mahal" },
      { "placeName": "Jaisalmer" },
      { "placeName": "Ranakpurtemple" },
      { "placeName": "Mehrangarh-Fort" }
    ]
  },
  {
    "id": 5,
    "title": "Varkala Beach",
    "image": "Varkala-Beach.jpg",
    "state": "india",
    "review": 3.5,
    "days_nigths": "6 Nights - 7 Day",
    "description": "The Hawa Mahal is a palace in the city of Jaipur, India. Built from red and pink sandstone, it is on the edge of the City Palace, Jaipur, and extends to the Zenana, or women's chambers. The structure was built in 1799 by the Maharaja Sawai Pratap Singh, grandson of Maharaja Sawai Jai Singh, the founder of the city of Jaipur, India. He was so inspired by the unique structure of Khetri Mahal that he built this grand and historical palace",
    "days": [
      { "placeName": "Hawa Mahal" },
      { "placeName": "Jaisalmer" },
      { "placeName": "Ranakpurtemple" },
      { "placeName": "Mehrangarh-Fort" }
    ]
  },
  {
    "id": 6,
    "title": "Taj Mahal",
    "image": "Taj-Mahal.jpg",
    "state": "india",
    "review": 5,
    "days_nigths": "6 Nights - 7 Day",
    "description": "The Hawa Mahal is a palace in the city of Jaipur, India. Built from red and pink sandstone, it is on the edge of the City Palace, Jaipur, and extends to the Zenana, or women's chambers. The structure was built in 1799 by the Maharaja Sawai Pratap Singh, grandson of Maharaja Sawai Jai Singh, the founder of the city of Jaipur, India. He was so inspired by the unique structure of Khetri Mahal that he built this grand and historical palace",
    "days": [
      { "placeName": "Hawa Mahal" },
      { "placeName": "Jaisalmer" },
      { "placeName": "Ranakpurtemple" },
      { "placeName": "Mehrangarh-Fort" }
    ]
  },
  {
    "id": 7,
    "title": "Hawa Mahal",
    "image": "Hawa-Mahal.jpg",
    "state": "india",
    "review": 3.5,
    "days_nigths": "6 Nights - 7 Day",
    "description": "The Hawa Mahal is a palace in the city of Jaipur, India. Built from red and pink sandstone, it is on the edge of the City Palace, Jaipur, and extends to the Zenana, or women's chambers. The structure was built in 1799 by the Maharaja Sawai Pratap Singh, grandson of Maharaja Sawai Jai Singh, the founder of the city of Jaipur, India. He was so inspired by the unique structure of Khetri Mahal that he built this grand and historical palace",
    "days": [
      { "placeName": "Hawa Mahal" },
      { "placeName": "Jaisalmer" },
      { "placeName": "Ranakpurtemple" },
      { "placeName": "Mehrangarh-Fort" }
    ]
  },
  {
    "id": 8,
    "title": "Jaisalmer",
    "image": "Jaisalmer.jpg",
    "state": "india",
    "review": 3.5,
    "days_nigths": "6 Nights - 7 Day",
    "description": "The Hawa Mahal is a palace in the city of Jaipur, India. Built from red and pink sandstone, it is on the edge of the City Palace, Jaipur, and extends to the Zenana, or women's chambers. The structure was built in 1799 by the Maharaja Sawai Pratap Singh, grandson of Maharaja Sawai Jai Singh, the founder of the city of Jaipur, India. He was so inspired by the unique structure of Khetri Mahal that he built this grand and historical palace",
    "days": [
      { "placeName": "Hawa Mahal" },
      { "placeName": "Jaisalmer" },
      { "placeName": "Ranakpurtemple" },
      { "placeName": "Mehrangarh-Fort" }
    ]
  },
  {
    "id": 9,
    "title": "Mehrangarh Fort",
    "image": "Mehrangarh-Fort.jpg",
    "state": "india",
    "review": 3.5,
    "days_nigths": "6 Nights - 7 Day",
    "description": "The Hawa Mahal is a palace in the city of Jaipur, India. Built from red and pink sandstone, it is on the edge of the City Palace, Jaipur, and extends to the Zenana, or women's chambers. The structure was built in 1799 by the Maharaja Sawai Pratap Singh, grandson of Maharaja Sawai Jai Singh, the founder of the city of Jaipur, India. He was so inspired by the unique structure of Khetri Mahal that he built this grand and historical palace",
    "days": [
      { "placeName": "Hawa Mahal" },
      { "placeName": "Jaisalmer" },
      { "placeName": "Ranakpurtemple" },
      { "placeName": "Mehrangarh-Fort" }
    ]
  },
  {
    "id": 10,
    "title": "Ranakpur Temple",
    "image": "Ranakpur-Temple.jpg",
    "state": "india",
    "review": 3.5,
    "days_nigths": "6 Nights - 7 Day",
    "description": "The Hawa Mahal is a palace in the city of Jaipur, India. Built from red and pink sandstone, it is on the edge of the City Palace, Jaipur, and extends to the Zenana, or women's chambers. The structure was built in 1799 by the Maharaja Sawai Pratap Singh, grandson of Maharaja Sawai Jai Singh, the founder of the city of Jaipur, India. He was so inspired by the unique structure of Khetri Mahal that he built this grand and historical palace",
    "days": [
      { "placeName": "Hawa Mahal" },
      { "placeName": "Jaisalmer" },
      { "placeName": "Ranakpurtemple" },
      { "placeName": "Mehrangarh-Fort" }
    ]
  },
  {
    "id": 11,
    "title": "Varkala Beach",
    "image": "Varkala-Beach.jpg",
    "state": "india",
    "review": 3.5,
    "days_nigths": "6 Nights - 7 Day",
    "description": "The Hawa Mahal is a palace in the city of Jaipur, India. Built from red and pink sandstone, it is on the edge of the City Palace, Jaipur, and extends to the Zenana, or women's chambers. The structure was built in 1799 by the Maharaja Sawai Pratap Singh, grandson of Maharaja Sawai Jai Singh, the founder of the city of Jaipur, India. He was so inspired by the unique structure of Khetri Mahal that he built this grand and historical palace",
    "days": [
      { "placeName": "Hawa Mahal" },
      { "placeName": "Jaisalmer" },
      { "placeName": "Ranakpurtemple" },
      { "placeName": "Mehrangarh-Fort" }
    ]
  },
  {
    "id": 12,
    "title": "Taj Mahal",
    "image": "Taj-Mahal.jpg",
    "state": "india",
    "review": 3.5,
    "days_nigths": "6 Nights - 7 Day",
    "description": "The Hawa Mahal is a palace in the city of Jaipur, India. Built from red and pink sandstone, it is on the edge of the City Palace, Jaipur, and extends to the Zenana, or women's chambers. The structure was built in 1799 by the Maharaja Sawai Pratap Singh, grandson of Maharaja Sawai Jai Singh, the founder of the city of Jaipur, India. He was so inspired by the unique structure of Khetri Mahal that he built this grand and historical palace",
    "days": [
      { "placeName": "Hawa Mahal" },
      { "placeName": "Jaisalmer" },
      { "placeName": "Ranakpurtemple" },
      { "placeName": "Mehrangarh-Fort" }
    ]
  }
]
